{
  "type": "FeatureCollection",
  "features": [
    {
      "type": "Feature",
      "properties": {
        "norad_id": 66625,
        "name": "STARLINK-35929",
        "group": "last-30-days",
        "lat": 5.009844212880388,
        "lon": -67.22045082997793,
        "alt_km": 447.31040955520166,
        "timestamp": "2025-12-27T15:27:09.828807+00:00",
        "meta_object_name": "STARLINK-35929",
        "meta_object_id": "2025-271J",
        "meta_epoch": "2025-12-27T00:40:51.715776",
        "meta_mean_motion": 15.39649821,
        "meta_eccentricity": 9.605e-05,
        "meta_inclination": 53.1597,
        "meta_ra_of_asc_node": 119.4492,
        "meta_arg_of_pericenter": 61.9071,
        "meta_mean_anomaly": 298.203,
        "meta_ephemeris_type": 0,
        "meta_classification_type": "U",
        "meta_norad_cat_id": 66625,
        "meta_element_set_no": 999,
        "meta_rev_at_epoch": 641,
        "meta_bstar": 0.0018997047,
        "meta_mean_motion_dot": 0.00076427,
        "meta_mean_motion_ddot": 0,
        "tle_line1": "1 66625U 25271J   25361.02837634  .00076427  00000+0  18997-2 0  9993",
        "tle_line2": "2 66625  53.1597 119.4492 0000960  61.9071 298.2030 15.39649821  6419"
      },
      "geometry": {
        "type": "Point",
        "coordinates": [
          -67.22045082997793,
          5.009844212880388
        ]
      }
    },
    {
      "type": "Feature",
      "properties": {
        "norad_id": 66626,
        "name": "STARLINK-35902",
        "group": "last-30-days",
        "lat": 52.672096610138034,
        "lon": -142.7720241805944,
        "alt_km": 438.7538324703919,
        "timestamp": "2025-12-27T15:27:09.828817+00:00",
        "meta_object_name": "STARLINK-35902",
        "meta_object_id": "2025-271K",
        "meta_epoch": "2025-12-27T01:00:55.456992",
        "meta_mean_motion": 15.39642706,
        "meta_eccentricity": 0.00015851,
        "meta_inclination": 53.1595,
        "meta_ra_of_asc_node": 119.5362,
        "meta_arg_of_pericenter": 84.6122,
        "meta_mean_anomaly": 275.5063,
        "meta_ephemeris_type": 0,
        "meta_classification_type": "U",
        "meta_norad_cat_id": 66626,
        "meta_element_set_no": 999,
        "meta_rev_at_epoch": 641,
        "meta_bstar": 0.0019071736,
        "meta_mean_motion_dot": 0.00076715,
        "meta_mean_motion_ddot": 0,
        "tle_line1": "1 66626U 25271K   25361.04230853  .00076715  00000+0  19072-2 0  9991",
        "tle_line2": "2 66626  53.1595 119.5362 0001585  84.6122 275.5063 15.39642706  6417"
      },
      "geometry": {
        "type": "Point",
        "coordinates": [
          -142.7720241805944,
          52.672096610138034
        ]
      }
    },
    {
      "type": "Feature",
      "properties": {
        "norad_id": 66627,
        "name": "STARLINK-35904",
        "group": "last-30-days",
        "lat": 25.133930443036032,
        "lon": -83.99412089856732,
        "alt_km": 443.672817806334,
        "timestamp": "2025-12-27T15:27:09.828827+00:00",
        "meta_object_name": "STARLINK-35904",
        "meta_object_id": "2025-271L",
        "meta_epoch": "2025-12-27T00:47:32.907264",
        "meta_mean_motion": 15.3965311,
        "meta_eccentricity": 0.00012006,
        "meta_inclination": 53.1602,
        "meta_ra_of_asc_node": 119.4785,
        "meta_arg_of_pericenter": 88.2066,
        "meta_mean_anomaly": 271.9076,
        "meta_ephemeris_type": 0,
        "meta_classification_type": "U",
        "meta_norad_cat_id": 66627,
        "meta_element_set_no": 999,
        "meta_rev_at_epoch": 637,
        "meta_bstar": 0.0011925382,
        "meta_mean_motion_dot": 0.00047652,
        "meta_mean_motion_ddot": 0,
        "tle_line1": "1 66627U 25271L   25361.03301976  .00047652  00000+0  11925-2 0  9993",
        "tle_line2": "2 66627  53.1602 119.4785 0001200  88.2066 271.9076 15.39653110  6376"
      },
      "geometry": {
        "type": "Point",
        "coordinates": [
          -83.99412089856732,
          25.133930443036032
        ]
      }
    },
    {
      "type": "Feature",
      "properties": {
        "norad_id": 66628,
        "name": "STARLINK-35862",
        "group": "last-30-days",
        "lat": -52.35655677365875,
        "lon": 39.930556640550485,
        "alt_km": 452.95544238213824,
        "timestamp": "2025-12-27T15:27:09.828837+00:00",
        "meta_object_name": "STARLINK-35862",
        "meta_object_id": "2025-271M",
        "meta_epoch": "2025-12-27T00:00:02.999808",
        "meta_mean_motion": 15.39598376,
        "meta_eccentricity": 0.00013028,
        "meta_inclination": 53.1601,
        "meta_ra_of_asc_node": 119.3739,
        "meta_arg_of_pericenter": 86.0407,
        "meta_mean_anomaly": 221.7503,
        "meta_ephemeris_type": 0,
        "meta_classification_type": "U",
        "meta_norad_cat_id": 66628,
        "meta_element_set_no": 999,
        "meta_rev_at_epoch": 609,
        "meta_bstar": 0.0001471086,
        "meta_mean_motion_dot": 5.485e-05,
        "meta_mean_motion_ddot": 0,
        "tle_line1": "1 66628U 25271M   25361.00003472  .00005485  00000+0  14711-3 0  9996",
        "tle_line2": "2 66628  53.1601 119.3739 0001302  86.0407 221.7503 15.39598376  6091"
      },
      "geometry": {
        "type": "Point",
        "coordinates": [
          39.930556640550485,
          -52.35655677365875
        ]
      }
    },
    {
      "type": "Feature",
      "properties": {
        "norad_id": 66629,
        "name": "STARLINK-35956",
        "group": "last-30-days",
        "lat": -51.164730808891655,
        "lon": 47.05704459085875,
        "alt_km": 400.6419494587026,
        "timestamp": "2025-12-27T15:27:09.828847+00:00",
        "meta_object_name": "STARLINK-35956",
        "meta_object_id": "2025-271N",
        "meta_epoch": "2025-12-27T05:00:05.360832",
        "meta_mean_motion": 15.57385878,
        "meta_eccentricity": 0.00102439,
        "meta_inclination": 53.1713,
        "meta_ra_of_asc_node": 117.7428,
        "meta_arg_of_pericenter": 28.3135,
        "meta_mean_anomaly": 331.8433,
        "meta_ephemeris_type": 0,
        "meta_classification_type": "U",
        "meta_norad_cat_id": 66629,
        "meta_element_set_no": 999,
        "meta_rev_at_epoch": 131,
        "meta_bstar": 0.0064599438,
        "meta_mean_motion_dot": 0.00513997,
        "meta_mean_motion_ddot": 0,
        "tle_line1": "1 66629U 25271N   25361.20839538  .00513997  00000+0  64599-2 0  9999",
        "tle_line2": "2 66629  53.1713 117.7428 0010243  28.3135 331.8433 15.57385878  1310"
      },
      "geometry": {
        "type": "Point",
        "coordinates": [
          47.05704459085875,
          -51.164730808891655
        ]
      }
    },
    {
      "type": "Feature",
      "properties": {
        "norad_id": 66630,
        "name": "STARLINK-35949",
        "group": "last-30-days",
        "lat": -42.65121863968105,
        "lon": 72.60954071637177,
        "alt_km": 451.9909291875765,
        "timestamp": "2025-12-27T15:27:09.828860+00:00",
        "meta_object_name": "STARLINK-35949",
        "meta_object_id": "2025-271P",
        "meta_epoch": "2025-12-27T06:00:02.000160",
        "meta_mean_motion": 15.39549912,
        "meta_eccentricity": 5.662e-05,
        "meta_inclination": 53.1603,
        "meta_ra_of_asc_node": 118.1457,
        "meta_arg_of_pericenter": 74.3603,
        "meta_mean_anomaly": 203.7416,
        "meta_ephemeris_type": 0,
        "meta_classification_type": "U",
        "meta_norad_cat_id": 66630,
        "meta_element_set_no": 999,
        "meta_rev_at_epoch": 608,
        "meta_bstar": 0.002225795,
        "meta_mean_motion_dot": 0.00089474,
        "meta_mean_motion_ddot": 0,
        "tle_line1": "1 66630U 25271P   25361.25002315  .00089474  00000+0  22258-2 0  9995",
        "tle_line2": "2 66630  53.1603 118.1457 0000566  74.3603 203.7416 15.39549912  6083"
      },
      "geometry": {
        "type": "Point",
        "coordinates": [
          72.60954071637177,
          -42.65121863968105
        ]
      }
    },
    {
      "type": "Feature",
      "properties": {
        "norad_id": 66631,
        "name": "STARLINK-35965",
        "group": "last-30-days",
        "lat": -41.57985967265982,
        "lon": 74.59231740558631,
        "alt_km": 452.0974885119067,
        "timestamp": "2025-12-27T15:27:09.828873+00:00",
        "meta_object_name": "STARLINK-35965",
        "meta_object_id": "2025-271Q",
        "meta_epoch": "2025-12-27T06:00:02.000160",
        "meta_mean_motion": 15.39562154,
        "meta_eccentricity": 8.356e-05,
        "meta_inclination": 53.1601,
        "meta_ra_of_asc_node": 118.1428,
        "meta_arg_of_pericenter": 83.1212,
        "meta_mean_anomaly": 196.792,
        "meta_ephemeris_type": 0,
        "meta_classification_type": "U",
        "meta_norad_cat_id": 66631,
        "meta_element_set_no": 999,
        "meta_rev_at_epoch": 597,
        "meta_bstar": 0.0020815466,
        "meta_mean_motion_dot": 0.00083619,
        "meta_mean_motion_ddot": 0,
        "tle_line1": "1 66631U 25271Q   25361.25002315  .00083619  00000+0  20815-2 0  9998",
        "tle_line2": "2 66631  53.1601 118.1428 0000835  83.1212 196.7920 15.39562154  5974"
      },
      "geometry": {
        "type": "Point",
        "coordinates": [
          74.59231740558631,
          -41.57985967265982
        ]
      }
    }
  ]
}